[
    {
        "Altitude(m)": 604969.0889887686,
        "Argument of Periapsis(deg)": 0.0,
        "Eccentricity": 0.0,
        "Inclination(deg)": 60.0,
        "Latitude(deg)": -0.0925374267575558,
        "Longitude(deg)": 79.9775276710021,
        "Mean Anomaly(deg)": 0.0,
        "RAAN(deg)": 180.0,
        "Satellite Name": "Test1 792",
        "Satellite Number": 792,
        "Semi-Major Axis(m)": 6980739.136638005,
        "Time(s)": 0
    },
    {
        "Altitude(m)": 604900.0293475358,
        "Argument of Periapsis(deg)": 0.00010418945913296404,
        "Eccentricity": 0.0,
        "Inclination(deg)": 60.0,
        "Latitude(deg)": 0.447888660719649,
        "Longitude(deg)": 80.24565031913112,
        "Mean Anomaly(deg)": 0.6201061454618275,
        "RAAN(deg)": 179.99957995086024,
        "Satellite Name": "Test1 792",
        "Satellite Number": 792,
        "Semi-Major Axis(m)": 6980739.136638005,
        "Time(s)": 10
    }
]